[
  {
    "OBJECT_NAME": "STARLINK-3680",
    "OBJECT_ID": "22025P",
    "EPOCH": "2025-11-11T01:45:12.943872",
    "MEAN_MOTION": 15.06399661,
    "ECCENTRICITY": 0.0001228,
    "INCLINATION": 53.0549,
    "RA_OF_ASC_NODE": 199.7189,
    "ARG_OF_PERICENTER": 89.0253,
    "MEAN_ANOMALY": 271.0876,
    "EPHEMERIS_TYPE": 0,
    "CLASSIFICATION_TYPE": "U",
    "NORAD_CAT_ID": 51969,
    "ELEMENT_SET_NO": 999,
    "REV_AT_EPOCH": 20308,
    "BSTAR": 0.00011801,
    "MEAN_MOTION_DOT": 1.477e-05,
    "MEAN_MOTION_DDOT": 0.0,
    "TLE_LINE1": "1 51969U 22025P   25315.07306648  .00001477  00000+0  11801-3 0  9993",
    "TLE_LINE2": "2 51969  53.0549 199.7189 0001228  89.0253 271.0876 15.06399661203082",
    "COMMENT": "Grouped by shell and plane from TLE"
  },
  {
    "OBJECT_NAME": "STARLINK-3669",
    "OBJECT_ID": "22025R",
    "EPOCH": "2025-11-10T23:16:31.797408",
    "MEAN_MOTION": 15.06403509,
    "ECCENTRICITY": 0.0001598,
    "INCLINATION": 53.0542,
    "RA_OF_ASC_NODE": 199.8331,
    "ARG_OF_PERICENTER": 87.5609,
    "MEAN_ANOMALY": 272.5563,
    "EPHEMERIS_TYPE": 0,
    "CLASSIFICATION_TYPE": "U",
    "NORAD_CAT_ID": 51971,
    "ELEMENT_SET_NO": 999,
    "REV_AT_EPOCH": 20308,
    "BSTAR": 0.00014548,
    "MEAN_MOTION_DOT": 1.886e-05,
    "MEAN_MOTION_DDOT": 0.0,
    "TLE_LINE1": "1 51971U 22025R   25314.96981247  .00001886  00000+0  14548-3 0  9992",
    "TLE_LINE2": "2 51971  53.0542 199.8331 0001598  87.5609 272.5563 15.06403509203082",
    "COMMENT": "Grouped by shell and plane from TLE"
  },
  {
    "OBJECT_NAME": "STARLINK-3674",
    "OBJECT_ID": "22025V",
    "EPOCH": "2025-11-10T23:20:25.766880",
    "MEAN_MOTION": 15.06397929,
    "ECCENTRICITY": 0.0001618,
    "INCLINATION": 53.0546,
    "RA_OF_ASC_NODE": 199.4248,
    "ARG_OF_PERICENTER": 93.9945,
    "MEAN_ANOMALY": 266.1229,
    "EPHEMERIS_TYPE": 0,
    "CLASSIFICATION_TYPE": "U",
    "NORAD_CAT_ID": 51975,
    "ELEMENT_SET_NO": 999,
    "REV_AT_EPOCH": 20309,
    "BSTAR": 0.00013709,
    "MEAN_MOTION_DOT": 1.761e-05,
    "MEAN_MOTION_DDOT": 0.0,
    "TLE_LINE1": "1 51975U 22025V   25314.97252045  .00001761  00000+0  13709-3 0  9994",
    "TLE_LINE2": "2 51975  53.0546 199.4248 0001618  93.9945 266.1229 15.06397929203097",
    "COMMENT": "Grouped by shell and plane from TLE"
  },
  {
    "OBJECT_NAME": "STARLINK-3660",
    "OBJECT_ID": "22025X",
    "EPOCH": "2025-11-11T02:45:04.723200",
    "MEAN_MOTION": 15.08841172,
    "ECCENTRICITY": 0.0001428,
    "INCLINATION": 53.2183,
    "RA_OF_ASC_NODE": 191.4352,
    "ARG_OF_PERICENTER": 85.7532,
    "MEAN_ANOMALY": 274.3623,
    "EPHEMERIS_TYPE": 0,
    "CLASSIFICATION_TYPE": "U",
    "NORAD_CAT_ID": 51977,
    "ELEMENT_SET_NO": 999,
    "REV_AT_EPOCH": 20343,
    "BSTAR": 7.7572e-05,
    "MEAN_MOTION_DOT": 9.47e-06,
    "MEAN_MOTION_DDOT": 0.0,
    "TLE_LINE1": "1 51977U 22025X   25315.11463800  .00000947  00000+0  77572-4 0  9990",
    "TLE_LINE2": "2 51977  53.2183 191.4352 0001428  85.7532 274.3623 15.08841172203439",
    "COMMENT": "Grouped by shell and plane from TLE"
  },
  {
    "OBJECT_NAME": "STARLINK-3657",
    "OBJECT_ID": "22025AL",
    "EPOCH": "2025-11-11T01:03:00.849312",
    "MEAN_MOTION": 15.08846994,
    "ECCENTRICITY": 0.000149,
    "INCLINATION": 53.2174,
    "RA_OF_ASC_NODE": 191.7432,
    "ARG_OF_PERICENTER": 93.6462,
    "MEAN_ANOMALY": 266.4701,
    "EPHEMERIS_TYPE": 0,
    "CLASSIFICATION_TYPE": "U",
    "NORAD_CAT_ID": 51990,
    "ELEMENT_SET_NO": 999,
    "REV_AT_EPOCH": 20342,
    "BSTAR": 0.00013414,
    "MEAN_MOTION_DOT": 1.848e-05,
    "MEAN_MOTION_DDOT": 0.0,
    "TLE_LINE1": "1 51990U 22025AL  25315.04375983  .00001848  00000+0  13414-3 0  9996",
    "TLE_LINE2": "2 51990  53.2174 191.7432 0001490  93.6462 266.4701 15.08846994203420",
    "COMMENT": "Grouped by shell and plane from TLE"
  },
  {
    "OBJECT_NAME": "STARLINK-3643",
    "OBJECT_ID": "22025AN",
    "EPOCH": "2025-11-11T02:22:29.953056",
    "MEAN_MOTION": 15.0884664,
    "ECCENTRICITY": 0.000168,
    "INCLINATION": 53.2167,
    "RA_OF_ASC_NODE": 191.4933,
    "ARG_OF_PERICENTER": 82.6477,
    "MEAN_ANOMALY": 277.4706,
    "EPHEMERIS_TYPE": 0,
    "CLASSIFICATION_TYPE": "U",
    "NORAD_CAT_ID": 51992,
    "ELEMENT_SET_NO": 999,
    "REV_AT_EPOCH": 20300,
    "BSTAR": 0.00018002000000000003,
    "MEAN_MOTION_DOT": 2.579e-05,
    "MEAN_MOTION_DDOT": 0.0,
    "TLE_LINE1": "1 51992U 22025AN  25315.09895779  .00002579  00000+0  18002-3 0  9993",
    "TLE_LINE2": "2 51992  53.2167 191.4933 0001680  82.6477 277.4706 15.08846640203001",
    "COMMENT": "Grouped by shell and plane from TLE"
  },
  {
    "OBJECT_NAME": "STARLINK-3647",
    "OBJECT_ID": "22025AQ",
    "EPOCH": "2025-11-11T02:17:10.137408",
    "MEAN_MOTION": 15.08860669,
    "ECCENTRICITY": 0.0001433,
    "INCLINATION": 53.2156,
    "RA_OF_ASC_NODE": 191.5104,
    "ARG_OF_PERICENTER": 86.9615,
    "MEAN_ANOMALY": 273.1541,
    "EPHEMERIS_TYPE": 0,
    "CLASSIFICATION_TYPE": "U",
    "NORAD_CAT_ID": 51994,
    "ELEMENT_SET_NO": 999,
    "REV_AT_EPOCH": 20301,
    "BSTAR": 0.00023642,
    "MEAN_MOTION_DOT": 3.479e-05,
    "MEAN_MOTION_DDOT": 0.0,
    "TLE_LINE1": "1 51994U 22025AQ  25315.09525622  .00003479  00000+0  23642-3 0  9998",
    "TLE_LINE2": "2 51994  53.2156 191.5104 0001433  86.9615 273.1541 15.08860669203017",
    "COMMENT": "Grouped by shell and plane from TLE"
  },
  {
    "OBJECT_NAME": "STARLINK-3636",
    "OBJECT_ID": "22025AR",
    "EPOCH": "2025-11-11T00:57:42.962976",
    "MEAN_MOTION": 15.08839985,
    "ECCENTRICITY": 0.0001482,
    "INCLINATION": 53.2165,
    "RA_OF_ASC_NODE": 191.7595,
    "ARG_OF_PERICENTER": 89.3881,
    "MEAN_ANOMALY": 270.7281,
    "EPHEMERIS_TYPE": 0,
    "CLASSIFICATION_TYPE": "U",
    "NORAD_CAT_ID": 51995,
    "ELEMENT_SET_NO": 999,
    "REV_AT_EPOCH": 20299,
    "BSTAR": 4.5560000000000004e-05,
    "MEAN_MOTION_DOT": 4.37e-06,
    "MEAN_MOTION_DDOT": 0.0,
    "TLE_LINE1": "1 51995U 22025AR  25315.04008059  .00000437  00000+0  45560-4 0  9999",
    "TLE_LINE2": "2 51995  53.2165 191.7595 0001482  89.3881 270.7281 15.08839985202997",
    "COMMENT": "Grouped by shell and plane from TLE"
  },
  {
    "OBJECT_NAME": "STARLINK-3538",
    "OBJECT_ID": "22025AS",
    "EPOCH": "2025-11-11T00:36:31.361472",
    "MEAN_MOTION": 15.08837999,
    "ECCENTRICITY": 0.0001423,
    "INCLINATION": 53.2174,
    "RA_OF_ASC_NODE": 191.8263,
    "ARG_OF_PERICENTER": 93.8514,
    "MEAN_ANOMALY": 266.2641,
    "EPHEMERIS_TYPE": 0,
    "CLASSIFICATION_TYPE": "U",
    "NORAD_CAT_ID": 51996,
    "ELEMENT_SET_NO": 999,
    "REV_AT_EPOCH": 20300,
    "BSTAR": 0.00010127,
    "MEAN_MOTION_DOT": 1.324e-05,
    "MEAN_MOTION_DDOT": 0.0,
    "TLE_LINE1": "1 51996U 22025AS  25315.02536298  .00001324  00000+0  10127-3 0  9995",
    "TLE_LINE2": "2 51996  53.2174 191.8263 0001423  93.8514 266.2641 15.08837999203005",
    "COMMENT": "Grouped by shell and plane from TLE"
  },
  {
    "OBJECT_NAME": "STARLINK-3589",
    "OBJECT_ID": "22025AT",
    "EPOCH": "2025-11-11T02:27:48.294720",
    "MEAN_MOTION": 15.08841936,
    "ECCENTRICITY": 0.0001407,
    "INCLINATION": 53.2188,
    "RA_OF_ASC_NODE": 191.4781,
    "ARG_OF_PERICENTER": 89.1984,
    "MEAN_ANOMALY": 270.9169,
    "EPHEMERIS_TYPE": 0,
    "CLASSIFICATION_TYPE": "U",
    "NORAD_CAT_ID": 51997,
    "ELEMENT_SET_NO": 999,
    "REV_AT_EPOCH": 20300,
    "BSTAR": 0.00015048,
    "MEAN_MOTION_DOT": 2.108e-05,
    "MEAN_MOTION_DDOT": 0.0,
    "TLE_LINE1": "1 51997U 22025AT  25315.10264230  .00002108  00000+0  15048-3 0  9997",
    "TLE_LINE2": "2 51997  53.2188 191.4781 0001407  89.1984 270.9169 15.08841936203006",
    "COMMENT": "Grouped by shell and plane from TLE"
  },
  {
    "OBJECT_NAME": "STARLINK-3618",
    "OBJECT_ID": "22025AU",
    "EPOCH": "2025-11-10T01:38:43.704096",
    "MEAN_MOTION": 15.08831704,
    "ECCENTRICITY": 0.0001393,
    "INCLINATION": 53.2162,
    "RA_OF_ASC_NODE": 196.1218,
    "ARG_OF_PERICENTER": 88.7786,
    "MEAN_ANOMALY": 271.3365,
    "EPHEMERIS_TYPE": 0,
    "CLASSIFICATION_TYPE": "U",
    "NORAD_CAT_ID": 51998,
    "ELEMENT_SET_NO": 999,
    "REV_AT_EPOCH": 20286,
    "BSTAR": 5.2515000000000005e-06,
    "MEAN_MOTION_DOT": -2.04e-06,
    "MEAN_MOTION_DDOT": 0.0,
    "TLE_LINE1": "1 51998U 22025AU  25314.06856139 -.00000204  00000+0  52515-5 0  9995",
    "TLE_LINE2": "2 51998  53.2162 196.1218 0001393  88.7786 271.3365 15.08831704202863",
    "COMMENT": "Grouped by shell and plane from TLE"
  },
  {
    "OBJECT_NAME": "STARLINK-3653",
    "OBJECT_ID": "22025AW",
    "EPOCH": "2025-11-11T02:43:40.805472",
    "MEAN_MOTION": 15.08843513,
    "ECCENTRICITY": 0.0001319,
    "INCLINATION": 53.2165,
    "RA_OF_ASC_NODE": 191.3429,
    "ARG_OF_PERICENTER": 88.299,
    "MEAN_ANOMALY": 271.8153,
    "EPHEMERIS_TYPE": 0,
    "CLASSIFICATION_TYPE": "U",
    "NORAD_CAT_ID": 52000,
    "ELEMENT_SET_NO": 999,
    "REV_AT_EPOCH": 20302,
    "BSTAR": 0.00013113,
    "MEAN_MOTION_DOT": 1.8e-05,
    "MEAN_MOTION_DDOT": 0.0,
    "TLE_LINE1": "1 52000U 22025AW  25315.11366673  .00001800  00000+0  13113-3 0  9997",
    "TLE_LINE2": "2 52000  53.2165 191.3429 0001319  88.2990 271.8153 15.08843513203022",
    "COMMENT": "Grouped by shell and plane from TLE"
  },
  {
    "OBJECT_NAME": "STARLINK-3659",
    "OBJECT_ID": "22025AX",
    "EPOCH": "2025-11-11T01:25:35.247936",
    "MEAN_MOTION": 15.08844684,
    "ECCENTRICITY": 0.0001365,
    "INCLINATION": 53.2162,
    "RA_OF_ASC_NODE": 191.6842,
    "ARG_OF_PERICENTER": 85.5189,
    "MEAN_ANOMALY": 274.5959,
    "EPHEMERIS_TYPE": 0,
    "CLASSIFICATION_TYPE": "U",
    "NORAD_CAT_ID": 52001,
    "ELEMENT_SET_NO": 999,
    "REV_AT_EPOCH": 20301,
    "BSTAR": 8.9603e-05,
    "MEAN_MOTION_DOT": 1.139e-05,
    "MEAN_MOTION_DDOT": 0.0,
    "TLE_LINE1": "1 52001U 22025AX  25315.05943574  .00001139  00000+0  89603-4 0  9995",
    "TLE_LINE2": "2 52001  53.2162 191.6842 0001365  85.5189 274.5959 15.08844684203016",
    "COMMENT": "Grouped by shell and plane from TLE"
  }
]